[
    {
        "Altitude(m)": 559277.6913364939,
        "Argument of Periapsis(deg)": 0.013245982221427002,
        "Eccentricity": 0.0,
        "Inclination(deg)": 53.0,
        "Latitude(deg)": 50.4146766102246,
        "Longitude(deg)": -26.58658764137594,
        "Mean Anomaly(deg)": -254.36221426484477,
        "RAAN(deg)": 319.980286737056,
        "Satellite Name": "Starlink Shell 1 1413",
        "Satellite Number": 1413,
        "Semi-Major Axis(m)": 6931778.249405717,
        "Time(s)": 380
    },
    {
        "Altitude(m)": 559228.4542795748,
        "Argument of Periapsis(deg)": 0.013594560700938237,
        "Eccentricity": 0.0,
        "Inclination(deg)": 53.0,
        "Latitude(deg)": 50.19939408886393,
        "Longitude(deg)": -25.708436557961015,
        "Mean Anomaly(deg)": -253.73538306128808,
        "RAAN(deg)": 319.97976796697856,
        "Satellite Name": "Starlink Shell 1 1413",
        "Satellite Number": 1413,
        "Semi-Major Axis(m)": 6931778.249405717,
        "Time(s)": 390
    },
    {
        "Altitude(m)": 559177.5546149384,
        "Argument of Periapsis(deg)": 0.013943139180449475,
        "Eccentricity": 0.0,
        "Inclination(deg)": 53.0,
        "Latitude(deg)": 49.97689587056677,
        "Longitude(deg)": -24.83864870602169,
        "Mean Anomaly(deg)": -253.1085518577314,
        "RAAN(deg)": 319.9792491969011,
        "Satellite Name": "Starlink Shell 1 1413",
        "Satellite Number": 1413,
        "Semi-Major Axis(m)": 6931778.249405717,
        "Time(s)": 400
    },
    {
        "Altitude(m)": 559125.0233239298,
        "Argument of Periapsis(deg)": 0.014291717659960712,
        "Eccentricity": 0.0,
        "Inclination(deg)": 53.0,
        "Latitude(deg)": 49.747303403072245,
        "Longitude(deg)": -23.97735009281843,
        "Mean Anomaly(deg)": -252.48172065417467,
        "RAAN(deg)": 319.97873042682363,
        "Satellite Name": "Starlink Shell 1 1413",
        "Satellite Number": 1413,
        "Semi-Major Axis(m)": 6931778.249405717,
        "Time(s)": 410
    },
    {
        "Altitude(m)": 559070.892414718,
        "Argument of Periapsis(deg)": 0.014640296139471948,
        "Eccentricity": 0.0,
        "Inclination(deg)": 53.0,
        "Latitude(deg)": 49.51073923875553,
        "Longitude(deg)": -23.12465204489473,
        "Mean Anomaly(deg)": -251.85488945061795,
        "RAAN(deg)": 319.9782116567461,
        "Satellite Name": "Starlink Shell 1 1413",
        "Satellite Number": 1413,
        "Semi-Major Axis(m)": 6931778.249405717,
        "Time(s)": 420
    },
    {
        "Altitude(m)": 559015.1949065905,
        "Argument of Periapsis(deg)": 0.014988874618983185,
        "Eccentricity": 0.0,
        "Inclination(deg)": 53.0,
        "Latitude(deg)": 49.26732679411356,
        "Longitude(deg)": -22.280651093448586,
        "Mean Anomaly(deg)": -251.22805824706126,
        "RAAN(deg)": 319.97769288666865,
        "Satellite Name": "Starlink Shell 1 1413",
        "Satellite Number": 1413,
        "Semi-Major Axis(m)": 6931778.249405717,
        "Time(s)": 430
    },
    {
        "Altitude(m)": 558957.9648136774,
        "Argument of Periapsis(deg)": 0.015337453098494424,
        "Eccentricity": 0.0,
        "Inclination(deg)": 53.0,
        "Latitude(deg)": 49.0171901190152,
        "Longitude(deg)": -21.445428897164607,
        "Mean Anomaly(deg)": -250.60122704350457,
        "RAAN(deg)": 319.97717411659124,
        "Satellite Name": "Starlink Shell 1 1413",
        "Satellite Number": 1413,
        "Semi-Major Axis(m)": 6931778.249405717,
        "Time(s)": 440
    },
    {
        "Altitude(m)": 558899.2371282219,
        "Argument of Periapsis(deg)": 0.01568603157800566,
        "Eccentricity": 0.0,
        "Inclination(deg)": 53.0,
        "Latitude(deg)": 48.760453676212144,
        "Longitude(deg)": -20.61905371027474,
        "Mean Anomaly(deg)": -249.97439583994785,
        "RAAN(deg)": 319.9766553465137,
        "Satellite Name": "Starlink Shell 1 1413",
        "Satellite Number": 1413,
        "Semi-Major Axis(m)": 6931778.249405717,
        "Time(s)": 450
    },
    {
        "Altitude(m)": 558839.0478033212,
        "Argument of Periapsis(deg)": 0.0160346100575169,
        "Eccentricity": 0.0,
        "Inclination(deg)": 53.0,
        "Latitude(deg)": 48.497242131506646,
        "Longitude(deg)": -19.801580365138204,
        "Mean Anomaly(deg)": -249.34756463639107,
        "RAAN(deg)": 319.9761365764362,
        "Satellite Name": "Starlink Shell 1 1413",
        "Satellite Number": 1413,
        "Semi-Major Axis(m)": 6931778.249405717,
        "Time(s)": 460
    },
    {
        "Altitude(m)": 558777.433735216,
        "Argument of Periapsis(deg)": 0.016383188537028134,
        "Eccentricity": 0.0,
        "Inclination(deg)": 53.0,
        "Latitude(deg)": 48.22768015486093,
        "Longitude(deg)": -18.99305027742564,
        "Mean Anomaly(deg)": -248.72073343283438,
        "RAAN(deg)": 319.9756178063588,
        "Satellite Name": "Starlink Shell 1 1413",
        "Satellite Number": 1413,
        "Semi-Major Axis(m)": 6931778.249405717,
        "Time(s)": 470
    },
    {
        "Altitude(m)": 558714.4327450626,
        "Argument of Periapsis(deg)": 0.01673176701653937,
        "Eccentricity": 0.0,
        "Inclination(deg)": 53.0,
        "Latitude(deg)": 47.95189223264011,
        "Longitude(deg)": -18.19349298221115,
        "Mean Anomaly(deg)": -248.0939022292777,
        "RAAN(deg)": 319.97509903628134,
        "Satellite Name": "Starlink Shell 1 1413",
        "Satellite Number": 1413,
        "Semi-Major Axis(m)": 6931778.249405717,
        "Time(s)": 480
    },
    {
        "Altitude(m)": 558650.0835602641,
        "Argument of Periapsis(deg)": 0.017080345496050607,
        "Eccentricity": 0.0,
        "Inclination(deg)": 53.0,
        "Latitude(deg)": 47.670002491096,
        "Longitude(deg)": -17.40292617089849,
        "Mean Anomaly(deg)": -247.46707102572094,
        "RAAN(deg)": 319.9745802662038,
        "Satellite Name": "Starlink Shell 1 1413",
        "Satellite Number": 1413,
        "Semi-Major Axis(m)": 6931778.249405717,
        "Time(s)": 490
    },
    {
        "Altitude(m)": 558584.4257953328,
        "Argument of Periapsis(deg)": 0.017428923975561842,
        "Eccentricity": 0.0,
        "Inclination(deg)": 53.0,
        "Latitude(deg)": 47.38213453111155,
        "Longitude(deg)": -16.62135573779234,
        "Mean Anomaly(deg)": -246.84023982216425,
        "RAAN(deg)": 319.97406149612635,
        "Satellite Name": "Starlink Shell 1 1413",
        "Satellite Number": 1413,
        "Semi-Major Axis(m)": 6931778.249405717,
        "Time(s)": 500
    },
    {
        "Altitude(m)": 558517.4999322648,
        "Argument of Periapsis(deg)": 0.01777750245507308,
        "Eccentricity": 0.0,
        "Inclination(deg)": 53.0,
        "Latitude(deg)": 47.08841127415134,
        "Longitude(deg)": -15.848777345404438,
        "Mean Anomaly(deg)": -246.2134086186075,
        "RAAN(deg)": 319.9735427260489,
        "Satellite Name": "Starlink Shell 1 1413",
        "Satellite Number": 1413,
        "Semi-Major Axis(m)": 6931778.249405717,
        "Time(s)": 510
    },
    {
        "Altitude(m)": 558449.3473005198,
        "Argument of Periapsis(deg)": 0.018126080934584315,
        "Eccentricity": 0.0,
        "Inclination(deg)": 53.0,
        "Latitude(deg)": 46.788954819302795,
        "Longitude(deg)": -15.085176479257694,
        "Mean Anomaly(deg)": -245.58657741505078,
        "RAAN(deg)": 319.9730239559714,
        "Satellite Name": "Starlink Shell 1 1413",
        "Satellite Number": 1413,
        "Semi-Major Axis(m)": 6931778.249405717,
        "Time(s)": 520
    },
    {
        "Altitude(m)": 558380.0100565312,
        "Argument of Periapsis(deg)": 0.018474659414095554,
        "Eccentricity": 0.0,
        "Inclination(deg)": 53.0,
        "Latitude(deg)": 46.483886311227344,
        "Longitude(deg)": -14.330528501867137,
        "Mean Anomaly(deg)": -244.9597462114941,
        "RAAN(deg)": 319.97250518589397,
        "Satellite Name": "Starlink Shell 1 1413",
        "Satellite Number": 1413,
        "Semi-Major Axis(m)": 6931778.249405717,
        "Time(s)": 530
    },
    {
        "Altitude(m)": 558309.5311627762,
        "Argument of Periapsis(deg)": 0.018823237893606792,
        "Eccentricity": 0.0,
        "Inclination(deg)": 53.0,
        "Latitude(deg)": 46.173325818786154,
        "Longitude(deg)": -13.58480021586971,
        "Mean Anomaly(deg)": -244.3329150079374,
        "RAAN(deg)": 319.97198641581645,
        "Satellite Name": "Starlink Shell 1 1413",
        "Satellite Number": 1413,
        "Semi-Major Axis(m)": 6931778.249405717,
        "Time(s)": 540
    },
    {
        "Altitude(m)": 558237.9543664629,
        "Argument of Periapsis(deg)": 0.019171816373118027,
        "Eccentricity": 0.0,
        "Inclination(deg)": 53.0,
        "Latitude(deg)": 45.85739222407056,
        "Longitude(deg)": -12.847949907957416,
        "Mean Anomaly(deg)": -243.70608380438068,
        "RAAN(deg)": 319.971467645739,
        "Satellite Name": "Starlink Shell 1 1413",
        "Satellite Number": 1413,
        "Semi-Major Axis(m)": 6931778.249405717,
        "Time(s)": 550
    },
    {
        "Altitude(m)": 558165.32417777,
        "Argument of Periapsis(deg)": 0.019520394852629266,
        "Eccentricity": 0.0,
        "Inclination(deg)": 53.0,
        "Latitude(deg)": 45.53620312151878,
        "Longitude(deg)": -12.119927384171048,
        "Mean Anomaly(deg)": -243.0792526008239,
        "RAAN(deg)": 319.9709488756616,
        "Satellite Name": "Starlink Shell 1 1413",
        "Satellite Number": 1413,
        "Semi-Major Axis(m)": 6931778.249405717,
        "Time(s)": 560
    }
]